ANGOSAT 2               
1 54033U 22131A   26179.30981284  .00000147  00000+0  00000+0 0  9994
2 54033   0.0204  88.3482 0000592  25.5456 297.0411  1.00270656 13587
EUTELSAT HOTBIRD 13F    
1 54048U 22134A   26179.52161975  .00000099  00000+0  00000+0 0  9990
2 54048   0.0501 292.5525 0001942  74.2112 110.6612  1.00271980 13494
LDPE-2                  
1 54219U 22144A   26179.53039878  .00000111  00000+0  00000+0 0  9993
2 54219   5.6394  63.5615 0002144  92.9180 164.3666  1.00538506 11952
EUTELSAT HOTBIRD 13G    
1 54225U 22146A   26179.04767030  .00000099  00000+0  00000+0 0  9991
2 54225   0.0554 207.3682 0002277 325.6282 133.3100  1.00271748  7578
ZHONGXING-19            
1 54230U 22148A   26179.57961606 -.00000070  00000+0  00000+0 0  9992
2 54230   0.0359  79.8871 0002904  35.4920 173.1675  1.00272795 13491
GALAXY 31 (G-31)        
1 54243U 22153A   26179.56643435  .00000000  00000+0  00000+0 0  9990
2 54243   0.0229  39.4535 0001648  54.8349 265.2838  1.00270269  7248
GALAXY 32 (G-32)        
1 54244U 22153B   26179.28719272 -.00000163  00000+0  00000+0 0  9994
2 54244   0.0117   6.6754 0002339  45.4252 236.6779  1.00276430 13251
EUTELSAT 10B            
1 54259U 22157A   26179.59240282  .00000079  00000+0  00000+0 0  9993
2 54259   0.0629  96.6467 0002202  10.6465  32.6279  1.00269681 13141
GALAXY 35 (G-35)        
1 54741U 22170A   26179.57198105  .00000000  00000+0  00000+0 0  9992
2 54741   0.0215  30.4348 0002218  66.7954 292.2379  1.00269209 13000
GALAXY 36 (G-36)        
1 54742U 22170B   26179.57276105 -.00000174  00000+0  00000+0 0  9993
2 54742   0.0190 264.1027 0002896 185.7954 303.9635  1.00270586 12887
METEOSAT-12 (MTG-I1)    
1 54743U 22170C   26179.30521948  .00000004  00000+0  00000+0 0  9994
2 54743   0.7506  24.7217 0003677  72.3488 288.9025  1.00275707 13086
SHIJIAN-23 (SJ-23)      
1 55131U 23002A   26179.77545213 -.00000295  00000+0  00000+0 0  9996
2 55131   3.7462  78.1751 0003650 279.9009 338.3384  1.00085154 12625
APSTAR-6E               
1 55239U 23005A   26179.04661586 -.00000306  00000+0  00000+0 0  9993
2 55239   0.0391 246.5298 0000540 284.1699 256.2299  1.00270718 18799
USA 342                 
1 55263U 23008A   26176.29697652  .00000000  00000+0  00000+0 0  9990
2 55263   0.0025 336.7217 0000253 165.3803 262.0787  1.00268501 12597
LDPE-3A                 
1 55264U 23008B   26179.58623204  .00000020  00000+0  00000+0 0  9990
2 55264   2.3766  81.5346 0001535  52.4102 198.5811  0.99149408 11923
ELEKTRO-L 4             
1 55506U 23016A   26178.77316362 -.00000047  00000+0  00000+0 0  9992
2 55506   0.0852 146.6028 0001012  36.5958 176.7966  1.00271480 12441
AMAZONAS NEXUS          
1 55508U 23017A   26178.79418497 -.00000271  00000+0  00000+0 0  9998
2 55508   0.0369  38.9582 0005198  36.0630  65.7817  1.00270726  7151
ZHONGXING-26            
1 55686U 23023A   26177.26264867 -.00000342  00000+0  00000+0 0  9992
2 55686   0.0690  71.1877 0003378  21.9123  40.9482  1.00274356 12320
LUCH-5X (OLYMP-K 2)     
1 55841U 23031A   26179.73864155  .00000045  00000+0  00000+0 0  9993
2 55841   0.0320  84.8797 0001129 156.7270   3.1066  1.00272194 12054
GAOFEN-13 02            
1 55912U 23036A   26179.11641810 -.00000208  00000+0  00000+0 0  9992
2 55912   1.0221   2.4951 0003693 339.5380 124.3200  1.00269095 12202
SES-18                  
1 55970U 23038A   26179.56998771 -.00000090  00000+0  00000+0 0  9997
2 55970   0.0320 283.4668 0000664 221.5457 233.7454  1.00272257 12212
SES-19                  
1 55971U 23038B   26179.56374767  .00000099  00000+0  00000+0 0  9999
2 55971   0.0112 343.2100 0002015 116.2822 245.2054  1.00273250 12203
INTELSAT 40E (IS-40E)   
1 56174U 23052A   26179.28719272  .00000000  00000+0  00000+0 0  9996
2 56174   0.0192  23.0339 0002497 104.3477 161.4000  1.00269516 11931
VIASAT-3 F1             
1 56370U 23060A   26179.57284772  .00000000  00000+0  00000+0 0  9997
2 56370   0.0216   2.7544 0001030 105.7581 285.3973  1.00269647 11548
ARCTURUS                
1 56371U 23060B   26177.89485947 -.00000176  00000+0  00000+0 0  9993
2 56371   2.7990  79.8193 0000384 207.4908  27.3984  1.00599177 11557
GS-1                    
1 56372U 23060C   26178.71873419 -.00000215  00000+0  00000+0 0  9995
2 56372   2.7521  79.7122 0003660 279.7624 264.5507  1.00271664  7645
BEIDOU-3 G4             
1 56564U 23066A   26179.66775937 -.00000269  00000+0  00000+0 0  9994
2 56564   0.4745 334.3818 0004901 175.3810 147.4406  1.00270497 11500
ARABSAT-7B (BADR-8)     
1 56757U 23075A   26179.59560950  .00000156  00000+0  00000+0 0  9991
2 56757   0.0756  29.9816 0004068   3.0759 124.0390  1.00271589 11236
NVS-01 (IRNSS-1J)       
1 56759U 23076A   26179.54482344 -.00000322  00000+0  00000+0 0  9995
2 56759   2.1400 243.8304 0002806  10.9585 347.5450  1.00274047 11228
NUSANTARA TIGA (SATRIA) 
1 57045U 23086A   26179.16780763 -.00000223  00000+0  00000+0 0  9999
2 57045   0.0351 359.7841 0003076 347.6280 135.2704  1.00272510  9879
H2SAT (HEINRICH HERTZ)  
1 57213U 23093A   26179.05322523  .00000013  00000+0  00000+0 0  9994
2 57213   0.0401 105.2548 0001207  26.9649 163.7965  1.00269588 11026
SYRACUSE 4B             
1 57214U 23093B   26179.30400613  .00000000  00000+0  00000+0 0  9996
2 57214   0.0277  30.8747 0000147  54.9632 293.5477  1.00268586  7074
