OBJECT_NAME,OBJECT_ID,EPOCH,MEAN_MOTION,ECCENTRICITY,INCLINATION,RA_OF_ASC_NODE,ARG_OF_PERICENTER,MEAN_ANOMALY,EPHEMERIS_TYPE,CLASSIFICATION_TYPE,NORAD_CAT_ID,ELEMENT_SET_NO,REV_AT_EPOCH,BSTAR,MEAN_MOTION_DOT,MEAN_MOTION_DDOT
ANGOSAT 2,2022-131A,2026-06-28T07:26:07.829376,1.00270656,.00005928,0.0204,88.3482,25.5456,297.0411,0,U,54033,999,1358,0,.147E-5,0
EUTELSAT HOTBIRD 13F,2022-134A,2026-06-28T12:31:07.946400,1.00271980,.00019425,0.0501,292.5525,74.2112,110.6612,0,U,54048,999,1349,0,.99E-6,0
LDPE-2,2022-144A,2026-06-28T12:43:46.454592,1.00538506,.00021449,5.6394,63.5615,92.9180,164.3666,0,U,54219,999,1195,0,.111E-5,0
EUTELSAT HOTBIRD 13G,2022-146A,2026-06-28T01:08:38.713920,1.00271748,.00022774,0.0554,207.3682,325.6282,133.3100,0,U,54225,999,757,0,.99E-6,0
ZHONGXING-19,2022-148A,2026-06-28T13:54:38.827584,1.00272795,.00029049,0.0359,79.8871,35.4920,173.1675,0,U,54230,999,1349,0,-.7E-6,0
GALAXY 31 (G-31),2022-153A,2026-06-28T13:35:39.927840,1.00270269,.00016483,0.0229,39.4535,54.8349,265.2838,0,U,54243,999,724,0,0,0
GALAXY 32 (G-32),2022-153B,2026-06-28T06:53:33.451008,1.00276430,.00023391,0.0117,6.6754,45.4252,236.6779,0,U,54244,999,1325,0,-.163E-5,0
EUTELSAT 10B,2022-157A,2026-06-28T14:13:03.603648,1.00269681,.00022022,0.0629,96.6467,10.6465,32.6279,0,U,54259,999,1314,0,.79E-6,0
GALAXY 35 (G-35),2022-170A,2026-06-28T13:43:39.162720,1.00269209,.00022187,0.0215,30.4348,66.7954,292.2379,0,U,54741,999,1300,0,0,0
GALAXY 36 (G-36),2022-170B,2026-06-28T13:44:46.554720,1.00270586,.00028967,0.0190,264.1027,185.7954,303.9635,0,U,54742,999,1288,0,-.174E-5,0
METEOSAT-12 (MTG-I1),2022-170C,2026-06-28T07:19:30.963072,1.00275707,.0003677,0.7506,24.7217,72.3488,288.9025,0,U,54743,999,1308,0,.4E-7,0
SHIJIAN-23 (SJ-23),2023-002A,2026-06-28T18:36:39.064032,1.00085154,.000365,3.7462,78.1751,279.9009,338.3384,0,U,55131,999,1262,0,-.295E-5,0
APSTAR-6E,2023-005A,2026-06-28T01:07:07.610304,1.00270718,.00005406,0.0391,246.5298,284.1699,256.2299,0,U,55239,999,1879,0,-.306E-5,0
USA 342,2023-008A,2026-06-25T07:07:38.771328,1.00268501,.0000253,0.0025,336.7217,165.3803,262.0787,0,U,55263,999,1259,0,0,0
LDPE-3A,2023-008B,2026-06-28T14:04:10.448256,0.99149408,.00015353,2.3766,81.5346,52.4102,198.5811,0,U,55264,999,1192,0,.2E-6,0
ELEKTRO-L 4,2023-016A,2026-06-27T18:33:21.336768,1.00271480,.00010127,0.0852,146.6028,36.5958,176.7966,0,U,55506,999,1244,0,-.47E-6,0
AMAZONAS NEXUS,2023-017A,2026-06-27T19:03:37.581408,1.00270726,.0005198,0.0369,38.9582,36.0630,65.7817,0,U,55508,999,715,0,-.271E-5,0
ZHONGXING-26,2023-023A,2026-06-26T06:18:12.845088,1.00274356,.0003378,0.0690,71.1877,21.9123,40.9482,0,U,55686,999,1232,0,-.342E-5,0
LUCH-5X (OLYMP-K 2),2023-031A,2026-06-28T17:43:38.629920,1.00272194,.0001129,0.0320,84.8797,156.7270,3.1066,0,U,55841,999,1205,0,.45E-6,0
GAOFEN-13 02,2023-036A,2026-06-28T02:47:38.523840,1.00269095,.00036935,1.0221,2.4951,339.5380,124.3200,0,U,55912,999,1220,0,-.208E-5,0
SES-18,2023-038A,2026-06-28T13:40:46.938144,1.00272257,.00006643,0.0320,283.4668,221.5457,233.7454,0,U,55970,999,1221,0,-.9E-6,0
SES-19,2023-038B,2026-06-28T13:31:47.798688,1.00273250,.00020155,0.0112,343.2100,116.2822,245.2054,0,U,55971,999,1220,0,.99E-6,0
INTELSAT 40E (IS-40E),2023-052A,2026-06-28T06:53:33.451008,1.00269516,.0002497,0.0192,23.0339,104.3477,161.4000,0,U,56174,999,1193,0,0,0
VIASAT-3 F1,2023-060A,2026-06-28T13:44:54.043008,1.00269647,.00010305,0.0216,2.7544,105.7581,285.3973,0,U,56370,999,1154,0,0,0
ARCTURUS,2023-060B,2026-06-26T21:28:35.858208,1.00599177,.0000384,2.7990,79.8193,207.4908,27.3984,0,U,56371,999,1155,0,-.176E-5,0
GS-1,2023-060C,2026-06-27T17:14:58.634016,1.00271664,.00036603,2.7521,79.7122,279.7624,264.5507,0,U,56372,999,764,0,-.215E-5,0
BEIDOU-3 G4,2023-066A,2026-06-28T16:01:34.409568,1.00270497,.00049015,0.4745,334.3818,175.3810,147.4406,0,U,56564,999,1150,0,-.269E-5,0
ARABSAT-7B (BADR-8),2023-075A,2026-06-28T14:17:40.660800,1.00271589,.00040689,0.0756,29.9816,3.0759,124.0390,0,U,56757,999,1123,0,.156E-5,0
NVS-01 (IRNSS-1J),2023-076A,2026-06-28T13:04:32.745216,1.00274047,.00028064,2.1400,243.8304,10.9585,347.5450,0,U,56759,999,1122,0,-.322E-5,0
NUSANTARA TIGA (SATRIA),2023-086A,2026-06-28T04:01:38.579232,1.00272510,.00030763,0.0351,359.7841,347.6280,135.2704,0,U,57045,999,987,0,-.223E-5,0
H2SAT (HEINRICH HERTZ),2023-093A,2026-06-28T01:16:38.659872,1.00269588,.00012074,0.0401,105.2548,26.9649,163.7965,0,U,57213,999,1102,0,.13E-6,0
SYRACUSE 4B,2023-093B,2026-06-28T07:17:46.129632,1.00268586,.00001475,0.0277,30.8747,54.9632,293.5477,0,U,57214,999,707,0,0,0
